NORAD_CAT_ID,OBJECT_NAME,OBJECT_TYPE,EPOCH,MEAN_MOTION,ECCENTRICITY,INCLINATION,RA_OF_ASC_NODE,ARG_OF_PERICENTER,MEAN_ANOMALY,BSTAR,MEAN_MOTION_DOT,MEAN_MOTION_DDOT,TLE_LINE0,TLE_LINE1,TLE_LINE2,SEMIMAJOR_AXIS,PERIOD,APOGEE,PERIGEE,DECAYED
49144.0,STARLINK-3100,PAYLOAD,2022-05-07 14:00:01,14.98312375,0.0003313,70.0013,229.6624,278.3642,299.3971,0.0012568,0.00014928,0.0,0 STARLINK-3100,1 49144U 21082Q   22127.58334491  .00014928  00000-0  12568-2 0  9994,2 49144  70.0013 229.6624 0003313 278.3642 299.3971 14.98312375 35953,6950.246999999999,96.108,574.415,569.81,0.0
49144.0,STARLINK-3100,PAYLOAD,2022-05-07 22:00:00,14.9834938,0.0003324,70.0009,228.8219,277.6982,297.5303,-0.0037361,-0.00044414,0.0,0 STARLINK-3100,1 49144U 21082Q   22127.91667824 -.00044414  00000-0 -37361-2 0  9993,2 49144  70.0009 228.8219 0003324 277.6982 297.5303 14.98349380  3589,6950.1330000000025,96.106,574.308,569.688,0.0
49144.0,STARLINK-3100,PAYLOAD,2022-05-08 14:00:01,14.98326536,0.0003415,70.0013,227.1411,277.7669,292.4415,0.0014539,0.00017296,0.0,0 STARLINK-3100,1 49144U 21082Q   22128.58334491  .00017296  00000-0  14539-2 0  9996,2 49144  70.0013 227.1411 0003415 277.7669 292.4415 14.98326536  3580,6950.204000000002,96.107,574.442,569.695,0.0
49144.0,STARLINK-3100,PAYLOAD,2022-05-08 22:00:00,14.98363047,0.0003405,70.0011,226.3006,277.0678,290.6259,-0.0036625,-0.00043562,0.0,0 STARLINK-3100,1 49144U 21082Q   22128.91667824 -.00043562  00000-0 -36625-2 0  9999,2 49144  70.0011 226.3006 0003405 277.0678 290.6259 14.98363047 36154,6950.090999999999,96.105,574.322,569.589,0.0
49144.0,STARLINK-3100,PAYLOAD,2022-05-09 14:00:01,14.98315964,0.000337,70.0014,224.6198,278.10400000000004,284.6691,0.001991,0.00023736,0.0,0 STARLINK-3100,1 49144U 21082Q   22129.58335648  .00023736  00000-0  19910-2 0  9996,2 49144  70.0014 224.6198 0003370 278.1040 284.6691 14.98315964 36255,6950.236,96.108,574.444,569.759,0.0
49144.0,STARLINK-3100,PAYLOAD,2022-05-09 22:00:00,14.98356712,0.0003338,70.0012,223.7794,277.089,283.1001,-0.0033093,-0.00039386,0.0,0 STARLINK-3100,1 49144U 21082Q   22129.91667824 -.00039386  00000-0 -33093-2 0  9995,2 49144  70.0012 223.7794 0003338 277.0890 283.1001 14.98356712  3585,6950.11,96.105,574.295,569.655,0.0
49144.0,STARLINK-3100,PAYLOAD,2022-05-10 14:00:01,14.98312757,0.0003304,70.0016,222.0987,279.014,276.1792,0.0014369,0.00017086,0.0,0 STARLINK-3100,1 49144U 21082Q   22130.58334491  .00017086  00000-0  14369-2 0  9997,2 49144  70.0016 222.0987 0003304 279.0140 276.1792 14.98312757 36405,6950.246,96.108,574.408,569.815,0.0
49144.0,STARLINK-3100,PAYLOAD,2022-05-10 18:00:00,14.98321453,0.0003307,70.0013,221.6785,279.8661,94.0592,0.0010597,0.00012571,0.0,0 STARLINK-3100,1 49144U 21082Q   22130.75001157  .00012571  00000-0  10597-2 0  9999,2 49144  70.0013 221.6785 0003307 279.8661  94.0592 14.98321453  3572,6950.219,96.108,574.383,569.786,0.0
49144.0,STARLINK-3100,PAYLOAD,2022-05-11 22:00:00,14.98355843,0.000322,70.0016,218.7372,277.6003,267.5146,-0.0030535,-0.00036363,0.0,0 STARLINK-3100,1 49144U 21082Q   22131.91667824 -.00036363  00000-0 -30535-2 0  9998,2 49144  70.0016 218.7372 0003220 277.6003 267.5146 14.98355843 36606,6950.113,96.105,574.216,569.74,0.0
49144.0,STARLINK-3100,PAYLOAD,2022-05-12 14:00:01,14.98311649,0.0003195,70.0021,217.0563,279.8453,260.2761,0.0028037,0.00033505,0.0,0 STARLINK-3100,1 49144U 21082Q   22132.58334491  .00033505  00000-0  28037-2 0  9990,2 49144  70.0021 217.0563 0003195 279.8453 260.2761 14.98311649  1308,6950.25,96.108,574.335,569.894,0.0
49144.0,STARLINK-3100,PAYLOAD,2022-05-12 20:00:01,14.98356911,0.0003177,70.0017,216.426,279.2355,168.9882,-0.0033741,-0.00040151,0.0,0 STARLINK-3100,1 49144U 21082Q   22132.83334491 -.00040151  00000-0 -33741-2 0  9993,2 49144  70.0017 216.4260 0003177 279.2355 168.9882 14.98356911 36740,6950.11,96.105,574.183,569.7669999999998,0.0
49144.0,STARLINK-3100,PAYLOAD,2022-05-12 22:00:00,14.98348714,0.0003176,70.0018,216.2159,277.1647,260.4359,-0.0024352,-0.00029044,0.0,0 STARLINK-3100,1 49144U 21082Q   22132.91667824 -.00029044  00000-0 -24352-2 0  9997,2 49144  70.0018 216.2159 0003176 277.1647 260.4359 14.98348714  1309,6950.135,96.106,574.207,569.793,0.0
49144.0,STARLINK-3100,PAYLOAD,2022-05-13 14:00:01,14.98307914,0.000341,70.0023,214.5351,278.5721,254.0224,0.0020242,0.00024129,0.0,0 STARLINK-3100,1 49144U 21082Q   22133.58334491  .00024129  00000-0  20242-2 0  9993,2 49144  70.0023 214.5351 0003410 278.5721 254.0224 14.98307914 36854,6950.261,96.108,574.496,569.756,0.0
49144.0,STARLINK-3100,PAYLOAD,2022-05-13 22:00:00,14.9833249,0.0003407,70.002,213.6946,275.858,254.203,-0.0022116,-0.00026385,0.0,0 STARLINK-3100,1 49144U 21082Q   22133.91667824 -.00026385  00000-0 -22116-2 0  9999,2 49144  70.0020 213.6946 0003407 275.8580 254.2030 14.98332490  1306,6950.185,96.107,574.418,569.682,0.0
49144.0,STARLINK-3100,PAYLOAD,2022-05-14 14:00:01,14.98335414,0.0003458999999999,70.0022,212.0139,278.1076,246.928,-2.1053000000000007e-05,-3.44e-06,0.0,0 STARLINK-3100,1 49144U 21082Q   22134.58334491 -.00000344  00000-0 -21053-4 0  9992,2 49144  70.0022 212.0139 0003459 278.1076 246.9280 14.98335414  1302,6950.176,96.107,574.445,569.637,0.0
49144.0,STARLINK-3100,PAYLOAD,2022-05-14 16:00:00,14.9830458,0.0003423,70.0021,211.8036,278.8503,335.5633,0.0029077,0.00034752,0.0,0 STARLINK-3100,1 49144U 21082Q   22134.66667824  .00034752  00000-0  29077-2 0  9990,2 49144  70.0021 211.8036 0003423 278.8503 335.5633 14.98304580 37011,6950.272,96.109,574.516,569.757,0.0
49144.0,STARLINK-3100,PAYLOAD,2022-05-14 22:00:00,14.98327303,0.0003371,70.002,211.1734,275.5063,247.006,-0.0014328,-0.00017146,0.0,0 STARLINK-3100,1 49144U 21082Q   22134.91667824 -.00017146  00000-0 -14328-2 0  9991,2 49144  70.0020 211.1734 0003371 275.5063 247.0060 14.98327303  1307,6950.201,96.107,574.409,569.7230000000002,0.0
49144.0,STARLINK-3100,PAYLOAD,2022-05-15 06:00:00,14.98353156,0.0003347,70.0024,210.3331,272.4151,247.555,-0.0039108,-0.00046477,0.0,0 STARLINK-3100,1 49144U 21082Q   22135.25001157 -.00046477  00000-0 -39108-2 0  9992,2 49144  70.0024 210.3331 0003347 272.4151 247.5550 14.98353156 37103,6950.121,96.106,574.312,569.66,0.0
49144.0,STARLINK-3100,PAYLOAD,2022-05-15 14:00:01,14.98286827,0.0003325,70.002,209.4927,278.6047,238.9275,0.0035539,0.00042523,0.0,0 STARLINK-3100,1 49144U 21082Q   22135.58335648  .00042523  00000-0  35539-2 0  9993,2 49144  70.0020 209.4927 0003325 278.6047 238.9275 14.98286827  1308,6950.326,96.11,574.502,569.88,0.0
49144.0,STARLINK-3100,PAYLOAD,2022-05-15 22:00:00,14.9831929,0.0003291,70.0018,208.6524,275.6712,239.2545,-0.00089937,-0.00010805,0.0,0 STARLINK-3100,1 49144U 21082Q   22135.91667824 -.00010805  00000-0 -89937-3 0  9996,2 49144  70.0018 208.6524 0003291 275.6712 239.2545 14.98319290 37200,6950.226,96.108,574.378,569.804,0.0
49144.0,STARLINK-3100,PAYLOAD,2022-05-16 14:00:01,14.98312582,0.000333,70.0016,206.9719,279.2983,230.5767,0.0029304,0.00035032,0.0,0 STARLINK-3100,1 49144U 21082Q   22136.58334491  .00035032  00000-0  29304-2 0  9999,2 49144  70.0016 206.9719 0003330 279.2983 230.5767 14.98312582 37307,6950.246999999999,96.108,574.4259999999998,569.797,0.0
49144.0,STARLINK-3100,PAYLOAD,2022-05-16 22:00:00,14.98330817,0.0003204,70.0013,206.1315,276.0882,231.2759,-0.0026733,-0.00031847,0.0,0 STARLINK-3100,1 49144U 21082Q   22136.91667824 -.00031847  00000-0 -26733-2 0  9990,2 49144  70.0013 206.1315 0003204 276.0882 231.2759 14.98330817  1302,6950.19,96.107,574.2819999999998,569.8290000000002,0.0
49144.0,STARLINK-3100,PAYLOAD,2022-05-17 06:00:00,14.98339784,0.0003198,70.0015,205.2912,273.7592,231.0676,-0.0013077,-0.00015666,0.0,0 STARLINK-3100,1 49144U 21082Q   22137.25001157 -.00015666  00000-0 -13077-2 0  9997,2 49144  70.0015 205.2912 0003198 273.7592 231.0676 14.98339784 37409,6950.163000000001,96.106,574.25,569.805,0.0
49144.0,STARLINK-3100,PAYLOAD,2022-05-17 14:00:01,14.98306827,0.0003243,70.0011,204.4509,280.1746,222.2047,0.0039912,0.00047828,0.0,0 STARLINK-3100,1 49144U 21082Q   22137.58335648  .00047828  00000-0  39912-2 0  9997,2 49144  70.0011 204.4509 0003243 280.1746 222.2047 14.98306827  1308,6950.265,96.108,574.384,569.876,0.0
49144.0,STARLINK-3100,PAYLOAD,2022-05-17 22:00:01,14.98335111,0.0003185,70.0008,203.6105,276.1148,223.7517,0.00048483,5.697e-05,0.0,0 STARLINK-3100,1 49144U 21082Q   22137.91668981  .00005697  00000-0  48483-3 0  9995,2 49144  70.0008 203.6105 0003185 276.1148 223.7517 14.98335111  1309,6950.177,96.107,574.256,569.828,0.0
49144.0,STARLINK-3100,PAYLOAD,2022-05-18 06:00:00,14.983797400000002,0.000326,70.001,202.7701,273.8739,223.4117,-0.0051266,-0.00060815,0.0,0 STARLINK-3100,1 49144U 21082Q   22138.25001157 -.00060815  00000-0 -51266-2 0  9996,2 49144  70.0010 202.7701 0003260 273.8739 223.4117 14.98379740 37553,6950.0390000000025,96.104,574.17,569.638,0.0
49144.0,STARLINK-3100,PAYLOAD,2022-05-18 14:00:01,14.98305846,0.0003393,70.0008,201.9296,279.6366,215.1677,0.0040821,0.00048926,0.0,0 STARLINK-3100,1 49144U 21082Q   22138.58334491  .00048926  00000-0  40821-2 0  9994,2 49144  70.0008 201.9296 0003393 279.6366 215.1677 14.98305846  1306,6950.268,96.109,574.491,569.774,0.0
49144.0,STARLINK-3100,PAYLOAD,2022-05-18 22:00:00,14.98335365,0.0003293,70.0004,201.0891,275.3735,216.9105,-0.0030616,-0.0003644,0.0,0 STARLINK-3100,1 49144U 21082Q   22138.91667824 -.00036440  00000-0 -30616-2 0  9991,2 49144  70.0004 201.0891 0003293 275.3735 216.9105 14.98335365 37657,6950.176,96.107,574.33,569.753,0.0
49144.0,STARLINK-3100,PAYLOAD,2022-05-19 14:00:01,14.98298777,0.0003364,70.0005,199.4082,278.9197,208.3758,0.0040023,0.00047952,0.0,0 STARLINK-3100,1 49144U 21082Q   22139.58335648  .00047952  00000-0  40023-2 0  9992,2 49144  70.0005 199.4082 0003364 278.9197 208.3758 14.98298777  1307,6950.2890000000025,96.109,574.493,569.816,0.0
